{"type":"FeatureCollection","name":"catalonia","features":[{"type":"Feature","properties":{},"geometry":{"type":"MultiPolygon","coordinates":[[[[0.853204,40.724509],[0.852079,40.725106],[0.85267,40.725087],[0.853204,40.724509]]],[[[0.864121,40.725359],[0.857371,40.730076],[0.861153,40.729511],[0.864121,40.725359]]],[[[0.737331,40.787034],[0.738072,40.786083],[0.73702,40.786973],[0.737331,40.787034]]],[[[0.435827,40.549826],[0.433412,40.56538],[0.443441,40.57877],[0.388394,40.606743],[0.33793,40.608783],[0.283408,40.62718],[0.266544,40.644222],[0.268176,40.659],[0.291841,40.688552],[0.262432,40.705852],[0.236524,40.701683],[0.226117,40.733164],[0.197292,40.724169],[0.170724,40.732837],[0.159182,40.750609],[0.175358,40.741131],[0.175223,40.754941],[0.190127,40.750323],[0.21199,40.767521],[0.229968,40.767433],[0.233917,40.786992],[0.278226,40.821035],[0.250807,40.856251],[0.255404,40.87453],[0.238909,40.884704],[0.250023,40.895973],[0.253843,40.91965],[0.27462,40.936623],[0.27137,40.944227],[0.293502,40.970561],[0.281543,40.974046],[0.281112,40.987162],[0.268494,40.998302],[0.274269,41.007135],[0.25866,41.01463],[0.280031,41.020164],[0.246139,41.041237],[0.23198,41.035322],[0.233105,41.047116],[0.217745,41.043655],[0.230448,41.055296],[0.218171,41.062863],[0.220427,41.082911],[0.201552,41.084678],[0.209324,41.116912],[0.201575,41.126773],[0.220182,41.132423],[0.214298,41.137299],[0.248229,41.13014],[0.252991,41.150153],[0.292338,41.156354],[0.303669,41.164377],[0.322405,41.225241],[0.331633,41.222722],[0.340658,41.23106],[0.361215,41.225517],[0.364956,41.238673],[0.381662,41.236427],[0.37406,41.249349],[0.386016,41.278842],[0.365648,41.303972],[0.368665,41.318625],[0.348787,41.328869],[0.37432,41.351536],[0.360309,41.370508],[0.32034,41.394861],[0.342194,41.413814],[0.355682,41.451757],[0.345018,41.462254],[0.342377,41.483998],[0.397066,41.4903],[0.447278,41.542233],[0.430683,41.565234],[0.436205,41.585683],[0.428849,41.602373],[0.402378,41.592715],[0.349613,41.599464],[0.345816,41.621863],[0.358337,41.631718],[0.326241,41.6622],[0.327018,41.678171],[0.369014,41.71419],[0.369574,41.724665],[0.385098,41.740309],[0.395792,41.731979],[0.399032,41.757808],[0.468602,41.764976],[0.483233,41.801463],[0.515818,41.82235],[0.543877,41.820885],[0.554914,41.85279],[0.580411,41.850906],[0.580056,41.863453],[0.607161,41.871798],[0.608223,41.878257],[0.592784,41.884415],[0.601343,41.908539],[0.594661,41.917404],[0.607488,41.919315],[0.561881,41.938219],[0.587287,41.966772],[0.604714,41.960652],[0.618309,41.988922],[0.638898,41.9946],[0.642287,41.982066],[0.663232,42.01223],[0.652069,42.026247],[0.657106,42.040367],[0.671491,42.04703],[0.669176,42.061151],[0.699911,42.106959],[0.696196,42.151994],[0.714327,42.16342],[0.699086,42.172296],[0.70298,42.190035],[0.715216,42.22482],[0.734411,42.249732],[0.745193,42.301173],[0.764986,42.322477],[0.74404,42.326315],[0.740723,42.336868],[0.771669,42.350638],[0.722587,42.367417],[0.746459,42.384772],[0.726307,42.40523],[0.736209,42.41402],[0.710504,42.436385],[0.708887,42.459425],[0.690846,42.487624],[0.69834,42.486383],[0.700861,42.495908],[0.713671,42.487255],[0.74003,42.505143],[0.72063,42.513086],[0.721443,42.524513],[0.735758,42.540218],[0.75075,42.534793],[0.741315,42.543962],[0.759039,42.572248],[0.7682,42.609817],[0.738178,42.612468],[0.699017,42.628815],[0.703735,42.64152],[0.696022,42.658499],[0.660376,42.688387],[0.676643,42.691034],[0.682336,42.709076],[0.672922,42.720021],[0.680526,42.723261],[0.663697,42.749743],[0.639682,42.754805],[0.668658,42.774786],[0.645228,42.783099],[0.670509,42.801946],[0.665198,42.814065],[0.670624,42.824119],[0.658896,42.836786],[0.678776,42.848096],[0.678617,42.855097],[0.723129,42.860238],[0.770232,42.838083],[0.811259,42.838767],[0.857184,42.826349],[0.92679,42.789585],[0.961127,42.805246],[0.984831,42.786136],[1.006512,42.79042],[1.044425,42.780748],[1.078532,42.787893],[1.128967,42.754435],[1.133577,42.728238],[1.171053,42.708168],[1.229697,42.728542],[1.252585,42.714648],[1.333383,42.725741],[1.358282,42.720662],[1.35225,42.703226],[1.388959,42.688003],[1.387459,42.668801],[1.414688,42.655157],[1.421169,42.625123],[1.44447,42.592805],[1.427583,42.583385],[1.445067,42.566788],[1.426528,42.558702],[1.414062,42.535666],[1.447208,42.541251],[1.469563,42.510766],[1.426163,42.493493],[1.419494,42.48382],[1.441394,42.475471],[1.440485,42.46436],[1.447833,42.460122],[1.442947,42.4447],[1.455547,42.436052],[1.513203,42.428894],[1.551451,42.432609],[1.56091,42.458576],[1.581195,42.449977],[1.597975,42.467608],[1.631661,42.463017],[1.657392,42.468437],[1.670695,42.504151],[1.679841,42.494666],[1.703976,42.489787],[1.726624,42.504888],[1.731278,42.492488],[1.823841,42.486513],[1.855806,42.464506],[1.879549,42.460677],[1.891431,42.447924],[1.91602,42.446158],[1.936962,42.454466],[1.941301,42.430681],[1.958933,42.423417],[1.955548,42.412103],[1.965712,42.38115],[2.015548,42.347365],[2.022717,42.355675],[2.084307,42.362127],[2.089431,42.374287],[2.116746,42.383331],[2.115466,42.394606],[2.129083,42.413821],[2.167924,42.425026],[2.207142,42.41717],[2.246161,42.428575],[2.256714,42.438785],[2.29158,42.42289],[2.312589,42.428622],[2.361192,42.40282],[2.433737,42.3933],[2.435846,42.375293],[2.466548,42.360874],[2.481499,42.340776],[2.50056,42.343245],[2.533192,42.332757],[2.551915,42.341032],[2.554925,42.354632],[2.571548,42.358549],[2.612723,42.345938],[2.672008,42.340733],[2.675599,42.357127],[2.651848,42.385752],[2.671592,42.386817],[2.674534,42.405134],[2.753485,42.426029],[2.777143,42.411665],[2.799677,42.418228],[2.818953,42.440427],[2.828068,42.439387],[2.839722,42.459198],[2.861783,42.45526],[2.870654,42.46755],[2.918774,42.456191],[2.947423,42.482392],[2.96792,42.46548],[2.988949,42.473957],[3.013584,42.466352],[3.039216,42.473569],[3.047533,42.457079],[3.085464,42.425971],[3.099549,42.42513],[3.121271,42.438415],[3.175039,42.435394],[3.161055,42.428129],[3.170508,42.425287],[3.171363,42.41632],[3.156339,42.407329],[3.166859,42.401279],[3.153199,42.39314],[3.167155,42.389957],[3.15542,42.378762],[3.166528,42.370971],[3.163281,42.360524],[3.183165,42.35106],[3.188337,42.352067],[3.185294,42.345067],[3.196767,42.335038],[3.204028,42.347264],[3.229744,42.351463],[3.250271,42.329927],[3.26585,42.340793],[3.280851,42.336224],[3.285996,42.325437],[3.29463,42.329768],[3.322543,42.319396],[3.286907,42.303486],[3.293261,42.301669],[3.287243,42.292279],[3.296262,42.289847],[3.299308,42.284422],[3.276509,42.287244],[3.277131,42.279864],[3.28799,42.265162],[3.281677,42.253862],[3.254195,42.252742],[3.264947,42.237679],[3.229843,42.251525],[3.229648,42.240482],[3.219334,42.232321],[3.196842,42.247117],[3.182451,42.245413],[3.181213,42.257991],[3.166981,42.264737],[3.142032,42.25321],[3.120001,42.22746],[3.111072,42.202924],[3.119604,42.13827],[3.125428,42.12721],[3.137104,42.126539],[3.138009,42.115671],[3.150949,42.119944],[3.177161,42.111627],[3.170228,42.105115],[3.182214,42.105305],[3.19565,42.083488],[3.202402,42.081969],[3.198623,42.078052],[3.208593,42.069554],[3.212388,42.0687],[3.212849,42.053913],[3.198355,42.048345],[3.19708,42.004074],[3.210788,41.972897],[3.231694,41.969473],[3.23391,41.950332],[3.218419,41.942462],[3.214776,41.93626],[3.220633,41.93488],[3.215901,41.929124],[3.217677,41.922492],[3.220612,41.922188],[3.207642,41.917213],[3.212223,41.909187],[3.207054,41.908073],[3.209774,41.901975],[3.205741,41.900393],[3.203221,41.891573],[3.182945,41.887334],[3.177015,41.866375],[3.151888,41.86205],[3.14306,41.85652],[3.145366,41.849699],[3.132979,41.846566],[3.129629,41.841011],[3.114721,41.849001],[3.097246,41.842373],[3.093848,41.837531],[3.09343,41.831874],[3.070947,41.818273],[3.066447,41.800792],[3.062674,41.804471],[3.055296,41.805044],[3.065067,41.799984],[3.056288,41.787561],[3.046015,41.788599],[3.044629,41.778879],[3.030657,41.780048],[3.032639,41.77159],[3.025855,41.774],[3.011578,41.772158],[2.977057,41.75734],[2.934423,41.714766],[2.819791,41.688837],[2.802682,41.672782],[2.793343,41.673597],[2.778389,41.648516],[2.56128,41.575254],[2.551472,41.578049],[2.46126,41.542358],[2.369417,41.49053],[2.276856,41.464236],[2.245976,41.439777],[2.22254,41.412426],[2.226133,41.405283],[2.1984,41.386895],[2.185416,41.357635],[2.186328,41.379773],[2.179581,41.375909],[2.176593,41.367145],[2.18321,41.365311],[2.183546,41.363275],[2.17529,41.350291],[2.173189,41.317088],[2.169792,41.337938],[2.180373,41.36511],[2.167444,41.347873],[2.161472,41.351375],[2.165945,41.34589],[2.15088,41.345747],[2.144356,41.334769],[2.148516,41.330125],[2.155724,41.341835],[2.16661,41.341885],[2.159179,41.326982],[2.105659,41.286302],[2.026853,41.266869],[1.932187,41.262615],[1.866086,41.236574],[1.81477,41.235999],[1.783304,41.223469],[1.761744,41.2186],[1.743907,41.218222],[1.738462,41.210703],[1.730056,41.205746],[1.737675,41.211186],[1.736111,41.21578],[1.608332,41.186238],[1.525047,41.18024],[1.459684,41.163455],[1.394922,41.131576],[1.295688,41.127214],[1.255781,41.11207],[1.225292,41.087065],[1.249063,41.108684],[1.206531,41.099767],[1.170453,41.054642],[1.126081,41.074943],[1.083553,41.063791],[1.049769,41.064373],[0.986599,41.040265],[0.953951,41.018041],[0.932982,40.991736],[0.914107,40.985912],[0.863008,40.946933],[0.792274,40.866707],[0.751966,40.846273],[0.741608,40.82325],[0.700116,40.804293],[0.70965,40.785912],[0.731361,40.769099],[0.761903,40.762054],[0.785029,40.769672],[0.773177,40.778948],[0.749146,40.786642],[0.731522,40.78823],[0.767098,40.792107],[0.831154,40.733611],[0.854294,40.730056],[0.844033,40.728859],[0.852832,40.724009],[0.865125,40.721453],[0.874484,40.734016],[0.887795,40.719258],[0.869982,40.694175],[0.75685,40.64084],[0.706806,40.583402],[0.664347,40.558462],[0.619062,40.555335],[0.597968,40.574176],[0.61112,40.578477],[0.618899,40.572252],[0.617235,40.586509],[0.656293,40.582043],[0.660497,40.591771],[0.687906,40.589853],[0.689683,40.601963],[0.688283,40.590047],[0.711488,40.592237],[0.746292,40.636177],[0.734499,40.642208],[0.707856,40.635267],[0.693943,40.640622],[0.663662,40.626523],[0.598467,40.620435],[0.602252,40.616267],[0.593249,40.616284],[0.60461,40.609123],[0.590237,40.61285],[0.548198,40.574424],[0.554913,40.570992],[0.538205,40.567613],[0.515499,40.522919],[0.435827,40.549826]],[[0.524214,41.290117],[0.518269,41.291594],[0.524027,41.290085],[0.524214,41.290117]],[[1.38519,41.556507],[1.38372,41.557069],[1.384929,41.55651],[1.38519,41.556507]],[[1.393006,41.57555],[1.39317,41.575284],[1.392678,41.578309],[1.393006,41.57555]],[[1.721361,42.283478],[1.71804,42.284462],[1.718604,42.284222],[1.721361,42.283478]],[[1.793819,42.29407],[1.787625,42.294671],[1.793271,42.293966],[1.793819,42.29407]],[[1.799576,42.299527],[1.799032,42.29902],[1.799831,42.299648],[1.799576,42.299527]],[[2.494514,42.061851],[2.492153,42.063738],[2.494983,42.061202],[2.494514,42.061851]],[[2.351905,41.809885],[2.351876,41.812741],[2.35172,41.810146],[2.351905,41.809885]],[[2.353663,41.807704],[2.352674,41.808801],[2.353291,41.80793],[2.353663,41.807704]],[[2.442355,41.799245],[2.440457,41.800581],[2.441373,41.799601],[2.442355,41.799245]],[[2.443625,41.798351],[2.443347,41.798546],[2.443555,41.797878],[2.443625,41.798351]],[[2.443566,41.792498],[2.443145,41.793927],[2.443082,41.793524],[2.443566,41.792498]],[[2.444122,41.790612],[2.44384,41.79157],[2.44412,41.789172],[2.444122,41.790612]],[[2.472531,41.789582],[2.462176,41.785874],[2.464833,41.786619],[2.472531,41.789582]],[[1.575892,41.249668],[1.575892,41.249668],[1.575892,41.249668],[1.575892,41.249668]],[[1.629325,41.310645],[1.633587,41.313481],[1.633587,41.313481],[1.629325,41.310645]],[[2.038436,41.527139],[2.038525,41.527149],[2.038519,41.527148],[2.038436,41.527139]],[[2.044403,41.378264],[2.044363,41.378361],[2.044524,41.377968],[2.044403,41.378264]],[[1.712726,41.895381],[1.712552,41.895767],[1.711697,41.896371],[1.712726,41.895381]],[[1.710822,41.89699],[1.709216,41.89684],[1.711146,41.896761],[1.710822,41.89699]],[[1.708726,41.896165],[1.709026,41.896748],[1.708721,41.8966],[1.708726,41.896165]],[[1.718628,41.89287],[1.719571,41.89356],[1.717728,41.892649],[1.718628,41.89287]],[[1.715646,41.892137],[1.716106,41.89225],[1.715174,41.892308],[1.715646,41.892137]],[[1.714015,41.892727],[1.714362,41.892601],[1.713872,41.893065],[1.714015,41.892727]],[[1.691055,41.231521],[1.691445,41.231421],[1.69104,41.231525],[1.691055,41.231521]],[[1.700677,41.22271],[1.700909,41.223433],[1.700714,41.222824],[1.700677,41.22271]],[[1.723086,41.217811],[1.722701,41.217627],[1.722711,41.217632],[1.723086,41.217811]],[[1.694409,41.270798],[1.695061,41.270595],[1.695056,41.270597],[1.694409,41.270798]],[[1.695116,41.270581],[1.69508,41.27059],[1.695061,41.270595],[1.695116,41.270581]],[[1.711919,41.26844],[1.710702,41.26819],[1.710259,41.268098],[1.711919,41.26844]],[[1.694749,41.343889],[1.694141,41.34407],[1.694754,41.343888],[1.694749,41.343889]],[[1.756556,41.224739],[1.756941,41.219366],[1.756905,41.21986],[1.756556,41.224739]],[[1.82504,41.562611],[1.824802,41.562613],[1.82576,41.562605],[1.82504,41.562611]],[[1.914762,41.384786],[1.915043,41.38455],[1.914758,41.38479],[1.914762,41.384786]],[[1.9253,41.382035],[1.925302,41.382035],[1.926135,41.382237],[1.9253,41.382035]],[[1.925441,41.381636],[1.92567,41.381703],[1.925739,41.381723],[1.925441,41.381636]],[[1.903444,41.370743],[1.90348,41.370775],[1.90333,41.370638],[1.903444,41.370743]],[[1.948172,41.386122],[1.948172,41.386122],[1.94809,41.386088],[1.948172,41.386122]],[[1.976661,41.573606],[1.976398,41.573723],[1.976057,41.573874],[1.976661,41.573606]],[[1.983778,41.570698],[1.983752,41.570754],[1.983745,41.570768],[1.983778,41.570698]],[[1.917284,41.519081],[1.913533,41.519408],[1.913533,41.519408],[1.917284,41.519081]],[[2.011106,41.559234],[2.01098,41.559494],[2.011507,41.558413],[2.011106,41.559234]],[[1.992834,41.571437],[1.992224,41.571702],[1.996091,41.57002],[1.992834,41.571437]],[[1.998271,41.568976],[1.99787,41.569156],[1.997839,41.569171],[1.998271,41.568976]],[[2.00029,41.571579],[2.000569,41.571944],[2.00029,41.571579],[2.00029,41.571579]],[[2.002405,41.573921],[2.002034,41.573841],[2.002405,41.573921],[2.002405,41.573921]],[[2.002767,41.572848],[2.002738,41.572856],[2.002743,41.572855],[2.002767,41.572848]],[[2.009037,41.572393],[2.004987,41.571809],[2.003929,41.571656],[2.009037,41.572393]],[[1.998939,41.57833],[1.998941,41.578329],[1.998308,41.578519],[1.998939,41.57833]],[[2.00081,41.577528],[2.000864,41.577516],[2.001625,41.57735],[2.00081,41.577528]],[[2.030262,41.568399],[2.032028,41.568238],[2.03026,41.568399],[2.030262,41.568399]],[[2.028682,41.567117],[2.02868,41.56712],[2.029322,41.565207],[2.028682,41.567117]],[[2.020592,42.115273],[2.017576,42.109984],[2.017919,42.110222],[2.020592,42.115273]],[[2.022292,42.127892],[2.022267,42.128794],[2.022169,42.127819],[2.022292,42.127892]],[[2.024318,41.407215],[2.024115,41.407384],[2.025028,41.406624],[2.024318,41.407215]],[[2.026964,41.41013],[2.02682,41.409801],[2.026964,41.41013],[2.026964,41.41013]],[[2.031801,41.350938],[2.032818,41.350885],[2.032129,41.350921],[2.031801,41.350938]],[[2.033292,41.35084],[2.03376,41.35073],[2.033527,41.350785],[2.033292,41.35084]],[[2.062543,41.384698],[2.061779,41.385703],[2.061779,41.385703],[2.062543,41.384698]],[[2.086631,41.353281],[2.087661,41.35343],[2.086586,41.353274],[2.086631,41.353281]],[[2.056081,41.373824],[2.056511,41.373281],[2.056077,41.373829],[2.056081,41.373824]],[[2.062971,41.363853],[2.063433,41.363461],[2.065144,41.362522],[2.062971,41.363853]],[[2.065145,41.362522],[2.065203,41.362557],[2.065144,41.362522],[2.065145,41.362522]],[[2.065276,41.362601],[2.065685,41.362849],[2.065203,41.362557],[2.065276,41.362601]],[[2.058808,41.374521],[2.062137,41.375084],[2.059343,41.375924],[2.058808,41.374521]],[[2.064994,41.375347],[2.064994,41.375347],[2.062137,41.375084],[2.064994,41.375347]],[[2.070438,41.375881],[2.070438,41.375881],[2.070438,41.375881],[2.070438,41.375881]],[[2.058662,41.367338],[2.058662,41.367338],[2.060471,41.368416],[2.058662,41.367338]],[[2.062051,41.367467],[2.061448,41.367211],[2.061448,41.367211],[2.062051,41.367467]],[[2.060021,41.364945],[2.059231,41.365237],[2.057692,41.365696],[2.060021,41.364945]],[[2.060511,41.364517],[2.060511,41.364517],[2.060021,41.364945],[2.060511,41.364517]],[[2.060757,41.364677],[2.061139,41.364913],[2.061148,41.364918],[2.060757,41.364677]],[[2.061902,41.364403],[2.061317,41.364836],[2.061158,41.364924],[2.061902,41.364403]],[[2.061942,41.364383],[2.061957,41.364388],[2.061902,41.364403],[2.061942,41.364383]],[[2.062292,41.366173],[2.062143,41.366356],[2.062746,41.365616],[2.062292,41.366173]],[[2.071313,41.369682],[2.071288,41.369674],[2.070127,41.369268],[2.071313,41.369682]],[[2.061533,41.379557],[2.061454,41.379156],[2.061533,41.379557],[2.061533,41.379557]],[[2.065442,41.379556],[2.065345,41.379492],[2.065345,41.379492],[2.065442,41.379556]],[[2.07205,41.384035],[2.072057,41.384032],[2.072148,41.383993],[2.07205,41.384035]],[[2.058655,41.37787],[2.059536,41.37703],[2.059536,41.37703],[2.058655,41.37787]],[[2.059721,41.376145],[2.059721,41.376145],[2.059048,41.37677],[2.059721,41.376145]],[[2.065379,41.378836],[2.065379,41.378837],[2.065377,41.378823],[2.065379,41.378836]],[[2.065722,41.378524],[2.065723,41.378524],[2.065722,41.378524],[2.065722,41.378524]],[[2.065794,41.378477],[2.065794,41.378477],[2.065794,41.378477],[2.065794,41.378477]],[[2.066305,41.378166],[2.066301,41.378168],[2.066309,41.378163],[2.066305,41.378166]],[[2.066537,41.377939],[2.066532,41.377946],[2.06658,41.377881],[2.066537,41.377939]],[[2.067358,41.377087],[2.067375,41.377076],[2.067351,41.377092],[2.067358,41.377087]],[[2.067614,41.376939],[2.067627,41.376933],[2.067599,41.376947],[2.067614,41.376939]],[[2.067889,41.376819],[2.067901,41.376815],[2.067887,41.37682],[2.067889,41.376819]],[[2.065297,41.37946],[2.06532,41.379475],[2.065293,41.379457],[2.065297,41.37946]],[[2.065272,41.379443],[2.065274,41.379444],[2.065269,41.379441],[2.065272,41.379443]],[[2.065076,41.379277],[2.065069,41.37928],[2.065088,41.37927],[2.065076,41.379277]],[[2.058239,41.384366],[2.058239,41.384366],[2.058239,41.384366],[2.058239,41.384366]],[[2.06814,41.486842],[2.068123,41.486899],[2.067899,41.487653],[2.06814,41.486842]],[[2.072109,41.482384],[2.069998,41.48231],[2.069949,41.482308],[2.072109,41.482384]],[[2.083167,41.383979],[2.083108,41.384037],[2.083149,41.383997],[2.083167,41.383979]],[[2.193937,41.651992],[2.19409,41.652114],[2.19387,41.651939],[2.193937,41.651992]],[[2.160267,41.592457],[2.159961,41.59277],[2.160513,41.592156],[2.160267,41.592457]],[[2.163168,41.587807],[2.163245,41.587648],[2.163157,41.58787],[2.163168,41.587807]],[[2.163935,41.586645],[2.163787,41.586678],[2.164054,41.586596],[2.163935,41.586645]],[[2.170148,41.584833],[2.170148,41.584833],[2.17004,41.584818],[2.170148,41.584833]],[[2.173035,41.585388],[2.17306,41.585393],[2.17306,41.585393],[2.173035,41.585388]],[[2.17399,41.58301],[2.173953,41.582952],[2.173953,41.582952],[2.17399,41.58301]],[[2.176681,41.576045],[2.176656,41.575864],[2.176681,41.576045],[2.176681,41.576045]],[[2.173234,41.564632],[2.173234,41.564632],[2.173048,41.563441],[2.173234,41.564632]],[[2.173466,41.555291],[2.173466,41.555291],[2.173919,41.555327],[2.173466,41.555291]],[[2.16869,41.562378],[2.16937,41.559168],[2.168759,41.559781],[2.16869,41.562378]],[[2.16769,41.562457],[2.166372,41.563827],[2.16869,41.562378],[2.16769,41.562457]],[[2.152381,41.583349],[2.152381,41.583349],[2.153686,41.582418],[2.152381,41.583349]],[[2.152547,41.581369],[2.150436,41.577187],[2.152983,41.577965],[2.152547,41.581369]],[[2.161479,41.565277],[2.151052,41.574046],[2.149495,41.577078],[2.161479,41.565277]],[[2.163072,41.564665],[2.163072,41.564665],[2.161479,41.565277],[2.163072,41.564665]],[[2.241578,41.825594],[2.24139,41.823301],[2.24138,41.823178],[2.241578,41.825594]],[[2.234337,41.815012],[2.234496,41.81458],[2.234334,41.81502],[2.234337,41.815012]],[[2.240837,41.815997],[2.239655,41.814616],[2.241083,41.816283],[2.240837,41.815997]],[[2.235575,41.80803],[2.235573,41.808027],[2.235539,41.807977],[2.235575,41.80803]],[[2.230976,41.647046],[2.230976,41.647046],[2.231716,41.647059],[2.230976,41.647046]],[[2.24457,41.631216],[2.24357,41.631114],[2.244793,41.631239],[2.24457,41.631216]],[[2.296109,41.499975],[2.295361,41.499929],[2.295363,41.49993],[2.296109,41.499975]],[[2.249465,41.457398],[2.250308,41.456483],[2.249465,41.457398],[2.249465,41.457398]],[[2.361214,41.619633],[2.368316,41.626404],[2.365055,41.623295],[2.361214,41.619633]],[[2.295035,41.492311],[2.295398,41.491843],[2.295183,41.492121],[2.295035,41.492311]],[[2.432035,41.698543],[2.4372,41.702101],[2.4371,41.702032],[2.432035,41.698543]],[[2.403144,41.713261],[2.402207,41.718246],[2.40348,41.711472],[2.403144,41.713261]],[[2.359427,41.637072],[2.365456,41.637499],[2.363527,41.637362],[2.359427,41.637072]],[[2.538702,41.61442],[2.538702,41.61442],[2.538721,41.614397],[2.538702,41.61442]],[[2.575282,41.587859],[2.575195,41.587772],[2.575093,41.587671],[2.575282,41.587859]],[[2.584802,41.591833],[2.585518,41.592124],[2.584802,41.591833],[2.584802,41.591833]],[[2.58002,41.591796],[2.580769,41.592057],[2.580758,41.592054],[2.58002,41.591796]],[[2.750459,41.669994],[2.751016,41.669847],[2.750399,41.670009],[2.750459,41.669994]],[[2.74963,41.66494],[2.750877,41.665458],[2.750362,41.665244],[2.74963,41.66494]],[[2.463382,41.643596],[2.464702,41.643587],[2.464296,41.64359],[2.463382,41.643596]],[[1.794985,42.430854],[1.796834,42.427373],[1.797213,42.426979],[1.794985,42.430854]],[[1.797767,42.426402],[1.798061,42.426097],[1.798232,42.426044],[1.797767,42.426402]],[[1.805784,42.408664],[1.805627,42.408565],[1.805592,42.408257],[1.805784,42.408664]],[[1.805537,42.40777],[1.805477,42.407239],[1.80859,42.3995],[1.805537,42.40777]],[[1.677319,42.10386],[1.678681,42.103596],[1.68,42.103714],[1.677319,42.10386]],[[3.176011,41.877915],[3.179171,41.875089],[3.177683,41.87652],[3.176011,41.877915]],[[2.767306,41.989578],[2.767323,41.990606],[2.76732,41.990422],[2.767306,41.989578]],[[2.80953,41.976564],[2.809359,41.976548],[2.809621,41.976572],[2.80953,41.976564]],[[2.817838,41.940991],[2.818045,41.940853],[2.817818,41.941004],[2.817838,41.940991]],[[2.802993,41.912973],[2.804053,41.914423],[2.803816,41.914099],[2.802993,41.912973]],[[2.81811,42.023293],[2.818756,42.023146],[2.818268,42.023257],[2.81811,42.023293]],[[3.066933,41.817826],[3.065695,41.816028],[3.066933,41.817826],[3.066933,41.817826]],[[3.051828,41.80071],[3.051794,41.800725],[3.052901,41.800253],[3.051828,41.80071]]],[[[2.792312,41.670417],[2.792683,41.670399],[2.792351,41.669911],[2.792312,41.670417]]],[[[2.804152,41.673104],[2.804464,41.673106],[2.804075,41.672909],[2.804152,41.673104]]],[[[2.803618,41.672906],[2.803292,41.673156],[2.803794,41.673257],[2.803618,41.672906]]],[[[2.83901,41.69245],[2.83869,41.692367],[2.838719,41.692555],[2.83901,41.69245]]],[[[2.88688,41.701476],[2.887119,41.701464],[2.886608,41.701265],[2.88688,41.701476]]],[[[2.896399,41.703507],[2.896012,41.703608],[2.896562,41.70385],[2.896399,41.703507]]],[[[2.912641,41.70771],[2.912294,41.707197],[2.912141,41.707628],[2.912641,41.70771]]],[[[2.940531,41.719625],[2.940348,41.720634],[2.940845,41.719906],[2.940531,41.719625]]],[[[2.946188,41.725839],[2.946576,41.725873],[2.94659,41.725504],[2.946188,41.725839]]],[[[2.946208,41.72618],[2.945927,41.725745],[2.945752,41.72606],[2.946208,41.72618]]],[[[3.028638,41.770469],[3.028266,41.770731],[3.028684,41.7707],[3.028638,41.770469]]],[[[3.023959,41.772632],[3.023794,41.77292],[3.024134,41.772956],[3.023959,41.772632]]],[[[3.025003,41.772991],[3.025425,41.77287],[3.025149,41.772624],[3.025003,41.772991]]],[[[3.041149,41.778063],[3.040678,41.778169],[3.041439,41.778336],[3.041149,41.778063]]],[[[3.045003,41.779786],[3.045965,41.780167],[3.046207,41.780055],[3.045003,41.779786]]],[[[1.986137,42.475054],[2.013855,42.44984],[1.984176,42.446879],[1.957106,42.457672],[1.9622,42.47778],[1.978623,42.494505],[1.997285,42.488414],[1.986137,42.475054]]],[[[3.045856,41.779777],[3.046606,41.779692],[3.045598,41.779593],[3.045856,41.779777]]],[[[3.094418,41.834674],[3.09487,41.834614],[3.094289,41.834321],[3.094418,41.834674]]],[[[3.094871,41.835631],[3.095039,41.835505],[3.094644,41.8354],[3.094871,41.835631]]],[[[3.130108,41.840986],[3.129998,41.840587],[3.129892,41.840988],[3.130108,41.840986]]],[[[3.133195,41.846059],[3.132978,41.846179],[3.133239,41.846138],[3.133195,41.846059]]],[[[3.137795,41.847333],[3.137775,41.847497],[3.138048,41.847329],[3.137795,41.847333]]],[[[3.138563,41.847805],[3.138628,41.847604],[3.138215,41.847563],[3.138563,41.847805]]],[[[3.141495,41.848125],[3.14114,41.848189],[3.141256,41.848273],[3.141495,41.848125]]],[[[3.14208,41.84858],[3.142009,41.848719],[3.142357,41.848574],[3.14208,41.84858]]],[[[3.153765,41.861031],[3.153618,41.860759],[3.153366,41.861016],[3.153765,41.861031]]],[[[3.179088,41.867388],[3.179481,41.867214],[3.178929,41.866992],[3.179088,41.867388]]],[[[3.178785,41.867495],[3.179318,41.868024],[3.179257,41.86764],[3.178785,41.867495]]],[[[3.179222,41.871261],[3.178782,41.871068],[3.178795,41.871203],[3.179222,41.871261]]],[[[3.206662,41.89983],[3.206681,41.899649],[3.206396,41.899818],[3.206662,41.89983]]],[[[3.209751,41.902849],[3.209874,41.903122],[3.210257,41.903101],[3.209751,41.902849]]],[[[3.208217,41.908261],[3.209069,41.908224],[3.208151,41.908202],[3.208217,41.908261]]],[[[3.217418,41.924406],[3.217215,41.924426],[3.218527,41.924777],[3.217418,41.924406]]],[[[3.206475,42.073953],[3.205275,42.073424],[3.205149,42.074358],[3.206475,42.073953]]],[[[3.197721,42.084402],[3.197952,42.085028],[3.198442,42.084479],[3.197721,42.084402]]],[[[3.203804,42.239935],[3.203759,42.240216],[3.204079,42.239902],[3.203804,42.239935]]],[[[3.198823,42.242995],[3.199028,42.242489],[3.198504,42.242707],[3.198823,42.242995]]],[[[3.182921,42.353135],[3.182735,42.353595],[3.184021,42.353462],[3.182921,42.353135]]],[[[3.165214,42.362535],[3.165857,42.362158],[3.165486,42.361962],[3.165214,42.362535]]],[[[3.16799,42.367435],[3.167576,42.367547],[3.167623,42.367662],[3.16799,42.367435]]],[[[3.16811,42.367915],[3.167707,42.368144],[3.167974,42.368264],[3.16811,42.367915]]],[[[3.16459,42.374352],[3.165251,42.374532],[3.165339,42.374311],[3.16459,42.374352]]],[[[3.165428,42.411186],[3.165991,42.411111],[3.165371,42.410613],[3.165428,42.411186]]],[[[3.218428,41.924261],[3.218685,41.924175],[3.218016,41.923986],[3.218428,41.924261]]],[[[3.219094,41.925278],[3.219869,41.92519],[3.219046,41.925163],[3.219094,41.925278]]],[[[3.218283,41.937357],[3.2184,41.938062],[3.2187,41.937685],[3.218283,41.937357]]],[[[3.228199,42.041718],[3.229089,42.041552],[3.228554,42.04115],[3.228199,42.041718]]],[[[3.227981,42.042081],[3.227267,42.041445],[3.22708,42.041878],[3.227981,42.042081]]],[[[3.224437,42.043993],[3.226045,42.042897],[3.224444,42.043201],[3.224437,42.043993]]],[[[3.227024,42.047462],[3.219605,42.048784],[3.226184,42.049245],[3.227024,42.047462]]],[[[3.264363,42.236918],[3.26434,42.237415],[3.265181,42.237225],[3.264363,42.236918]]],[[[3.28405,42.273894],[3.283779,42.273369],[3.283658,42.273853],[3.28405,42.273894]]],[[[3.293292,42.280388],[3.292766,42.282524],[3.293674,42.28179],[3.293292,42.280388]]],[[[3.279338,42.281822],[3.278937,42.282547],[3.280485,42.281534],[3.279338,42.281822]]],[[[3.310003,42.290511],[3.310109,42.290235],[3.309627,42.290505],[3.310003,42.290511]]],[[[3.308568,42.292031],[3.309553,42.291337],[3.308943,42.291056],[3.308568,42.292031]]],[[[3.309335,42.292312],[3.31005,42.291463],[3.309128,42.292306],[3.309335,42.292312]]],[[[3.296244,42.290154],[3.29606,42.294134],[3.297211,42.290731],[3.296244,42.290154]]],[[[3.295818,42.294741],[3.295798,42.29539],[3.29684,42.294046],[3.295818,42.294741]]],[[[3.292268,42.302885],[3.291916,42.30276],[3.291821,42.303027],[3.292268,42.302885]]],[[[3.301461,42.305205],[3.300987,42.305195],[3.301353,42.305346],[3.301461,42.305205]]],[[[3.306313,42.310545],[3.306953,42.310401],[3.306399,42.310315],[3.306313,42.310545]]],[[[3.30933,42.312214],[3.309587,42.311993],[3.309424,42.311822],[3.30933,42.312214]]],[[[3.332687,42.319797],[3.332137,42.318909],[3.331696,42.31996],[3.332687,42.319797]]],[[[3.324042,42.321158],[3.318816,42.323706],[3.318651,42.324481],[3.324042,42.321158]]],[[[3.30529,42.327073],[3.305379,42.328203],[3.306819,42.327808],[3.30529,42.327073]]],[[[3.285567,42.332184],[3.285339,42.332449],[3.28568,42.33234],[3.285567,42.332184]]],[[[3.287185,42.332104],[3.286386,42.333336],[3.287498,42.33269],[3.287185,42.332104]]],[[[3.24233,42.339623],[3.242727,42.340205],[3.244005,42.339388],[3.24233,42.339623]]]]}}]}